1 43013U 17073A   26158.83810000  .00000070  00000+0  54269-4 0  9997
2 43013  98.7769  98.3840 0000488  39.8818 320.2394 14.19510103443142
